STARLINK-2426_new
1 17836C 21018BB  21326.17866161  .00005715  00000-0  38289-3 0  3265
2 17836  53.0562  92.9254 0001478  69.6371 354.7372 15.06395028    15
STARLINK-2426_old
1 27836C 21018BB  21325.12890791 -.00001504  00000-0 -10082-3 0  3259
2 27836  53.0555  97.6375 0001459  70.3507  58.0446 15.06392101    17
